SAUDISAT 1C             
1 27607U 02058C   16071.20272487  .00000412  00000-0  79031-4 0  9995
2 27607  64.5541 100.2094 0076710 237.1080 122.2626 14.75094368710812
SAUDISAT 2              
1 28371U 04025F   16071.16030994  .00000214  00000-0  60914-4 0  9990
2 28371  98.0697  34.3479 0025366 337.0625  22.9438 14.54161549620545
UNISAT 3                
1 28373U 04025H   16070.10367844  .00000225  00000-0  74781-4 0  9991
2 28373  98.2861  15.8224 0069073 178.1481 181.9980 14.45260842616865
SAUDISAT 3              
1 31118U 07012B   16071.24129227  .00000161  00000-0  35232-4 0  9995
2 31118  97.7214  83.9935 0014518 317.4770  42.5314 14.68981379477048
